[{"OBJECT_NAME":"UHETSAT","OBJECT_ID":"2023-185E","EPOCH":"2026-03-09T22:39:26.455680","MEAN_MOTION":15.29797662,"ECCENTRICITY":0.00118435,"INCLINATION":97.3584,"RA_OF_ASC_NODE":137.3576,"ARG_OF_PERICENTER":307.7346,"MEAN_ANOMALY":52.2821,"EPHEMERIS_TYPE":0,"CLASSIFICATION_TYPE":"U","NORAD_CAT_ID":58466,"ELEMENT_SET_NO":999,"REV_AT_EPOCH":12611,"BSTAR":0.00030513019,"MEAN_MOTION_DOT":8.749e-5,"MEAN_MOTION_DDOT":0},{"OBJECT_NAME":"STARLINK-32876","OBJECT_ID":"2025-043V","EPOCH":"2026-03-09T04:56:56.091264","MEAN_MOTION":15.27605565,"ECCENTRICITY":0.00022536,"INCLINATION":43.0031,"RA_OF_ASC_NODE":18.5061,"ARG_OF_PERICENTER":243.8999,"MEAN_ANOMALY":116.1621,"EPHEMERIS_TYPE":0,"CLASSIFICATION_TYPE":"U","NORAD_CAT_ID":63151,"ELEMENT_SET_NO":999,"REV_AT_EPOCH":5729,"BSTAR":0.0012931379,"MEAN_MOTION_DOT":0.00035523,"MEAN_MOTION_DDOT":0}]
